[{"OBJECT_NAME":"OBJECT C","OBJECT_ID":"2024-085C","EPOCH":"2026-03-09T22:49:58.289376","MEAN_MOTION":15.31893958,"ECCENTRICITY":0.00283931,"INCLINATION":97.3357,"RA_OF_ASC_NODE":145.6975,"ARG_OF_PERICENTER":37.3887,"MEAN_ANOMALY":322.9323,"EPHEMERIS_TYPE":0,"CLASSIFICATION_TYPE":"U","NORAD_CAT_ID":59679,"ELEMENT_SET_NO":999,"REV_AT_EPOCH":10244,"BSTAR":0.00039740634,"MEAN_MOTION_DOT":0.0001232,"MEAN_MOTION_DDOT":0},{"OBJECT_NAME":"STARLINK-35228","OBJECT_ID":"2025-198AB","EPOCH":"2026-03-09T19:51:10.979424","MEAN_MOTION":15.30196191,"ECCENTRICITY":0.00010626,"INCLINATION":53.1587,"RA_OF_ASC_NODE":270.1762,"ARG_OF_PERICENTER":85.2428,"MEAN_ANOMALY":274.8694,"EPHEMERIS_TYPE":0,"CLASSIFICATION_TYPE":"U","NORAD_CAT_ID":65517,"ELEMENT_SET_NO":999,"REV_AT_EPOCH":2864,"BSTAR":0.00070421646,"MEAN_MOTION_DOT":0.00020553,"MEAN_MOTION_DDOT":0}]
